{
  "type": "FeatureCollection",
  "features": [
    {
      "type": "Feature",
      "properties": {
        "norad_id": 40115,
        "name": "WORLDVIEW-3 (WV-3)",
        "group": "resource",
        "lat": -69.49609177667423,
        "lon": -146.37526782382898,
        "alt_km": 617.4384155021326,
        "timestamp": "2025-12-08T23:34:03.626674+00:00",
        "meta_object_name": "WORLDVIEW-3 (WV-3)",
        "meta_object_id": "2014-048A",
        "meta_epoch": "2025-12-08T14:21:29.924928",
        "meta_mean_motion": 14.85496953,
        "meta_eccentricity": 0.00044421,
        "meta_inclination": 97.862,
        "meta_ra_of_asc_node": 54.9306,
        "meta_arg_of_pericenter": 199.0707,
        "meta_mean_anomaly": 161.0343,
        "meta_ephemeris_type": 0,
        "meta_classification_type": "U",
        "meta_norad_cat_id": 40115,
        "meta_element_set_no": 999,
        "meta_rev_at_epoch": 61362,
        "meta_bstar": 0.00027139127,
        "meta_mean_motion_dot": 2.289e-05,
        "meta_mean_motion_ddot": 0,
        "tle_line1": "1 40115U 14048A   25342.59826302  .00002289  00000+0  27139-3 0  9994",
        "tle_line2": "2 40115  97.8620  54.9306 0004442 199.0707 161.0343 14.85496953613629"
      },
      "geometry": {
        "type": "Point",
        "coordinates": [
          -146.37526782382898,
          -69.49609177667423
        ]
      }
    },
    {
      "type": "Feature",
      "properties": {
        "norad_id": 40118,
        "name": "GAOFEN-2",
        "group": "resource",
        "lat": 44.864662839195304,
        "lon": -129.76977145222887,
        "alt_km": 617.7960269232526,
        "timestamp": "2025-12-08T23:34:03.626684+00:00",
        "meta_object_name": "GAOFEN-2",
        "meta_object_id": "2014-049A",
        "meta_epoch": "2025-12-08T14:51:10.762848",
        "meta_mean_motion": 14.80598588,
        "meta_eccentricity": 0.00084464,
        "meta_inclination": 98.0391,
        "meta_ra_of_asc_node": 41.7801,
        "meta_arg_of_pericenter": 124.904,
        "meta_mean_anomaly": 235.2967,
        "meta_ephemeris_type": 0,
        "meta_classification_type": "U",
        "meta_norad_cat_id": 40118,
        "meta_element_set_no": 999,
        "meta_rev_at_epoch": 61103,
        "meta_bstar": 0.00022723167,
        "meta_mean_motion_dot": 1.691e-05,
        "meta_mean_motion_ddot": 0,
        "tle_line1": "1 40118U 14049A   25342.61887457  .00001691  00000+0  22723-3 0  9999",
        "tle_line2": "2 40118  98.0391  41.7801 0008446 124.9040 235.2967 14.80598588611030"
      },
      "geometry": {
        "type": "Point",
        "coordinates": [
          -129.76977145222887,
          44.864662839195304
        ]
      }
    },
    {
      "type": "Feature",
      "properties": {
        "norad_id": 40143,
        "name": "YAOGAN-21",
        "group": "resource",
        "lat": -56.19727956242672,
        "lon": -164.3885418833808,
        "alt_km": 508.9150877357515,
        "timestamp": "2025-12-08T23:34:03.626695+00:00",
        "meta_object_name": "YAOGAN-21",
        "meta_object_id": "2014-053A",
        "meta_epoch": "2025-12-08T14:39:02.273472",
        "meta_mean_motion": 15.23603281,
        "meta_eccentricity": 0.00099727,
        "meta_inclination": 97.1757,
        "meta_ra_of_asc_node": 26.1025,
        "meta_arg_of_pericenter": 54.4963,
        "meta_mean_anomaly": 305.7204,
        "meta_ephemeris_type": 0,
        "meta_classification_type": "U",
        "meta_norad_cat_id": 40143,
        "meta_element_set_no": 999,
        "meta_rev_at_epoch": 62591,
        "meta_bstar": 0.00040273435,
        "meta_mean_motion_dot": 9.59e-05,
        "meta_mean_motion_ddot": 0,
        "tle_line1": "1 40143U 14053A   25342.61044298  .00009590  00000+0  40273-3 0  9996",
        "tle_line2": "2 40143  97.1757  26.1025 0009972  54.4963 305.7204 15.23603281625919"
      },
      "geometry": {
        "type": "Point",
        "coordinates": [
          -164.3885418833808,
          -56.19727956242672
        ]
      }
    },
    {
      "type": "Feature",
      "properties": {
        "norad_id": 40275,
        "name": "YAOGAN-22",
        "group": "resource",
        "lat": 2.337564777854892,
        "lon": 125.9041191076981,
        "alt_km": 1205.426525375461,
        "timestamp": "2025-12-08T23:34:03.626705+00:00",
        "meta_object_name": "YAOGAN-22",
        "meta_object_id": "2014-063A",
        "meta_epoch": "2025-12-08T08:57:13.359456",
        "meta_mean_motion": 13.15522491,
        "meta_eccentricity": 0.00059259,
        "meta_inclination": 100.7419,
        "meta_ra_of_asc_node": 125.7309,
        "meta_arg_of_pericenter": 258.7958,
        "meta_mean_anomaly": 101.2488,
        "meta_ephemeris_type": 0,
        "meta_classification_type": "U",
        "meta_norad_cat_id": 40275,
        "meta_element_set_no": 999,
        "meta_rev_at_epoch": 53472,
        "meta_bstar": 0.0001076751,
        "meta_mean_motion_dot": -6e-08,
        "meta_mean_motion_ddot": 0,
        "tle_line1": "1 40275U 14063A   25342.37307129 -.00000006  00000+0  10768-3 0  9991",
        "tle_line2": "2 40275 100.7419 125.7309 0005925 258.7958 101.2488 13.15522491534722"
      },
      "geometry": {
        "type": "Point",
        "coordinates": [
          125.9041191076981,
          2.337564777854892
        ]
      }
    },
    {
      "type": "Feature",
      "properties": {
        "norad_id": 40298,
        "name": "ASNARO",
        "group": "resource",
        "lat": -18.51793303220972,
        "lon": 61.50366139695695,
        "alt_km": 516.1157361783144,
        "timestamp": "2025-12-08T23:34:03.626716+00:00",
        "meta_object_name": "ASNARO",
        "meta_object_id": "2014-070A",
        "meta_epoch": "2025-12-08T14:09:57.814272",
        "meta_mean_motion": 15.1936081,
        "meta_eccentricity": 0.00053696,
        "meta_inclination": 97.3652,
        "meta_ra_of_asc_node": 58.6385,
        "meta_arg_of_pericenter": 133.7391,
        "meta_mean_anomaly": 226.429,
        "meta_ephemeris_type": 0,
        "meta_classification_type": "U",
        "meta_norad_cat_id": 40298,
        "meta_element_set_no": 999,
        "meta_rev_at_epoch": 61506,
        "meta_bstar": 0.00066029766,
        "meta_mean_motion_dot": 0.00013915,
        "meta_mean_motion_ddot": 0,
        "tle_line1": "1 40298U 14070A   25342.59025248  .00013915  00000+0  66030-3 0  9992",
        "tle_line2": "2 40298  97.3652  58.6385 0005369 133.7391 226.4290 15.19360810615069"
      },
      "geometry": {
        "type": "Point",
        "coordinates": [
          61.50366139695695,
          -18.51793303220972
        ]
      }
    },
    {
      "type": "Feature",
      "properties": {
        "norad_id": 40310,
        "name": "YAOGAN-24",
        "group": "resource",
        "lat": 1.7457893228264443,
        "lon": -65.69521160353568,
        "alt_km": 635.2379761867505,
        "timestamp": "2025-12-08T23:34:03.626726+00:00",
        "meta_object_name": "YAOGAN-24",
        "meta_object_id": "2014-072A",
        "meta_epoch": "2025-12-08T14:37:47.928864",
        "meta_mean_motion": 14.76164939,
        "meta_eccentricity": 0.00145698,
        "meta_inclination": 98.1225,
        "meta_ra_of_asc_node": 113.6811,
        "meta_arg_of_pericenter": 150.7966,
        "meta_mean_anomaly": 209.4061,
        "meta_ephemeris_type": 0,
        "meta_classification_type": "U",
        "meta_norad_cat_id": 40310,
        "meta_element_set_no": 999,
        "meta_rev_at_epoch": 59560,
        "meta_bstar": 0.00028940736,
        "meta_mean_motion_dot": 1.951e-05,
        "meta_mean_motion_ddot": 0,
        "tle_line1": "1 40310U 14072A   25342.60958251  .00001951  00000+0  28941-3 0  9996",
        "tle_line2": "2 40310  98.1225 113.6811 0014569 150.7966 209.4061 14.76164939595604"
      },
      "geometry": {
        "type": "Point",
        "coordinates": [
          -65.69521160353568,
          1.7457893228264443
        ]
      }
    },
    {
      "type": "Feature",
      "properties": {
        "norad_id": 40336,
        "name": "CBERS 4",
        "group": "resource",
        "lat": 70.46700646073594,
        "lon": -114.47500626885109,
        "alt_km": 765.4191421090454,
        "timestamp": "2025-12-08T23:34:03.626736+00:00",
        "meta_object_name": "CBERS 4",
        "meta_object_id": "2014-079A",
        "meta_epoch": "2025-12-08T14:42:13.139712",
        "meta_mean_motion": 14.35515699,
        "meta_eccentricity": 0.00015632,
        "meta_inclination": 98.3316,
        "meta_ra_of_asc_node": 40.7707,
        "meta_arg_of_pericenter": 119.3209,
        "meta_mean_anomaly": 240.8134,
        "meta_ephemeris_type": 0,
        "meta_classification_type": "U",
        "meta_norad_cat_id": 40336,
        "meta_element_set_no": 999,
        "meta_rev_at_epoch": 57661,
        "meta_bstar": 0.00012617766,
        "meta_mean_motion_dot": 3.21e-06,
        "meta_mean_motion_ddot": 0,
        "tle_line1": "1 40336U 14079A   25342.61265208  .00000321  00000+0  12618-3 0  9999",
        "tle_line2": "2 40336  98.3316  40.7707 0001563 119.3209 240.8134 14.35515699576618"
      },
      "geometry": {
        "type": "Point",
        "coordinates": [
          -114.47500626885109,
          70.46700646073594
        ]
      }
    }
  ]
}